OBJECT_NAME,OBJECT_ID,EPOCH,MEAN_MOTION,ECCENTRICITY,INCLINATION,RA_OF_ASC_NODE,ARG_OF_PERICENTER,MEAN_ANOMALY,EPHEMERIS_TYPE,CLASSIFICATION_TYPE,NORAD_CAT_ID,ELEMENT_SET_NO,REV_AT_EPOCH,BSTAR,MEAN_MOTION_DOT,MEAN_MOTION_DDOT
GEOSCAN 3 (RS92S3),2025-155T,2026-07-20T14:44:19.083264,15.36425918,.00083556,97.4559,171.9109,73.2499,286.9661,0,U,64893,999,8598,.33348376E-3,.11785E-3,0
INNOSAT 3 (RS92S0),2025-155U,2026-07-20T14:27:20.651040,15.46089359,.00079197,97.4503,173.9605,78.4865,281.7273,0,U,64894,999,8612,.57152407E-3,.27966E-3,0
KNACKSAT-2,1998-067XZ,2026-07-20T12:04:09.856704,15.62776530,.00079811,51.6270,126.5287,346.1806,13.8969,0,U,67683,999,2548,.39992737E-3,.36378E-3,0
