GEOSCAN-3 (RS92S3)
1 64893U 25155T   26201.61410976  .00011785  00000-0  33348-3 0  9999
2 64893  97.4559 171.9109 0008356  73.2499 286.9661 15.36425918 85987
INNOSAT3 (RS92S0)
1 64894U 25155U   26201.60232235  .00027966  00000-0  57152-3 0  9996
2 64894  97.4503 173.9605 0007920  78.4865 281.7273 15.46089359 86125
KNACKSAT-2
1 67683U 98067XZ  26201.50289186  .00036378  00000-0  39993-3 0  9993
2 67683  51.6270 126.5287 0007981 346.1806  13.8969 15.62776530 25484
